NOAA 1 [-]              
1 04793U 70106A   22260.45711403 -.00000051  00000+0 -44403-4 0  9990
2 04793 101.5481 321.9204 0031962 142.9265 230.9363 12.54007466369128
NOAA 2 (ITOS-D) [-]     
1 06235U 72082A   22260.60183902 -.00000017  00000+0  18703-3 0  9996
2 06235 101.9626 243.4371 0003661 260.5005 216.5229 12.53151443283516
NOAA 3 [-]              
1 06920U 73086A   22260.58680656 -.00000024  00000+0  16383-3 0  9997
2 06920 102.2167 242.4222 0006644 118.0565 354.7328 12.40348395212211
NOAA 4 [-]              
1 07529U 74089A   22260.57910730 -.00000029  00000+0  10770-3 0  9994
2 07529 101.9232 240.5147 0008715 289.9493 180.4381 12.53160174188081
NOAA 5 [-]              
1 09057U 76077A   22260.54863236 -.00000030  00000+0  11461-3 0  9996
2 09057 102.1085 227.5857 0009951 331.9873 145.8472 12.37774148 85136
TIROS N [-]             
1 11060U 78096A   22260.12164084  .00000098  00000+0  68356-4 0  9994
2 11060  98.6267 311.3978 0009711 235.9158 124.1097 14.18412809484605
NOAA 6 [-]              
1 11416U 79057A   22260.51976100  .00000193  00000+0  85367-4 0  9997
2 11416  98.6652 271.5215 0010136 353.6785   6.4270 14.33797575254711
NOAA 7 [-]              
1 12553U 81059A   22260.56769296 -.00000001  00000+0  22201-4 0  9993
2 12553  98.9906 306.0908 0011017 209.5680 150.4872 14.17343453130843
NOAA 8 [-]              
1 13923U 83022A   22260.58282682  .00000110  00000+0  61228-4 0  9990
2 13923  98.6944 250.7970 0014162 302.8445  57.1372 14.28831073 55563
NOAA 9 [-]              
1 15427U 84123A   22260.58933345  .00000088  00000+0  67905-4 0  9995
2 15427  99.0555 234.4612 0013807 264.5728 208.8749 14.16222562949651
NOAA 10 [-]             
1 16969U 86073A   22260.58737712  .00000099  00000+0  56984-4 0  9990
2 16969  98.5764 245.0789 0013126  46.3509  63.9183 14.28220672873986
NOAA 11 [-]             
1 19531U 88089A   22260.52950665  .00000031  00000+0  36878-4 0  9991
2 19531  98.4329 244.5858 0009986 274.2872  85.7161 14.15321864753846
NOAA 12 [-]             
1 21263U 91032A   22260.55026584  .00000045  00000+0  36565-4 0  9993
2 21263  98.5194 257.8093 0014793  71.5492 288.7295 14.26009868629853
NOAA 13 [-]             
1 22739U 93050A   22260.51073499  .00000083  00000+0  66750-4 0  9998
2 22739  98.5146 235.7595 0010725  80.6182 279.6203 14.12860926500052
NOAA 14 [-]             
1 23455U 94089A   22260.53133721  .00000015  00000+0  29128-4 0  9997
2 23455  98.4445 282.2406 0010517  63.3129 296.9121 14.14208547429727
NOAA 15 [B]             
1 25338U 98030A   22260.60802217  .00000101  00000+0  60220-4 0  9994
2 25338  98.6390 288.9152 0010909  34.6409 325.5480 14.26171136266405
NOAA 16 [-]             
1 26536U 00055A   22260.57137218  .00000034  00000+0  40411-4 0  9998
2 26536  98.6275 316.2571 0009418 261.5631  98.4474 14.13343102430366
NOAA 17 [-]             
1 27453U 02032A   22260.54659693  .00000116  00000+0  68049-4 0  9995
2 27453  98.6776 204.7575 0012093   9.7212 350.4200 14.25141056 51977
NOAA 18 [B]             
1 28654U 05018A   22260.55918967  .00000154  00000+0  10689-3 0  9997
2 28654  98.9420 330.8930 0015204  73.2994 286.9845 14.12776543893070
NOAA 19 [+]             
1 33591U 09005A   22260.57087306  .00000102  00000+0  80349-4 0  9993
2 33591  99.1412 296.6135 0012958 290.6616  69.3165 14.12609761701450
SUOMI NPP [+]           
1 37849U 11061A   22260.62754475  .00000071  00000+0  54572-4 0  9996
2 37849  98.7361 197.9160 0001177  79.0484  92.6464 14.19543732564261
NOAA 20 [+]             
1 43013U 17073A   22260.55795564  .00000057  00000+0  47821-4 0  9994
2 43013  98.7200 197.6861 0001400 106.0204 254.1126 14.19543433250291
